<?xml version="1.0" encoding="UTF-8"?,
<response xmlns:xsd="http://www.w3.org/2001/XMLSchema" xmlns:xsi="http://www.w3.org/2001/XML-Schema-instance" version="1.2" xsi:noNamespaceSchemaLocation="http://aviationweather.gov/adds/schema/metar1_2.xsd",
  <request_index,139514745</request_index,
  <data_source name="metars" /,
  <request type="retrieve" /,
  <errors /,
  <warnings /,
  <time_taken_ms,2</time_taken_ms,
  <data num_results="4",
    <METAR,
      <raw_text,EGSH 061550Z 36005KT 300V060 9999 FEW027 18/11 Q1015 NOSIG</raw_text,
      <station_id,EGSH</station_id,
      <observation_time,2018-06-06T15:50:00Z</observation_time,
      <latitude,52.68</latitude,
      <longitude,1.28</longitude,
      <temp_c,18.0</temp_c,
      <dewpoint_c,11.0</dewpoint_c,
      <wind_dir_degrees,360</wind_dir_degrees,
      <wind_speed_kt,5</wind_speed_kt,
      <visibility_statute_mi,6.21</visibility_statute_mi,
      <altim_in_hg,29.970472</altim_in_hg,
      <quality_control_flags,
        <no_signal,TRUE</no_signal,
      </quality_control_flags,
      <sky_condition sky_cover="FEW" cloud_base_ft_agl="2700" /,
      <flight_category,VFR</flight_category,
      <metar_type,METAR</metar_type,
      <elevation_m,36.0</elevation_m,
    </METAR,
    <METAR,
      <raw_text,EGSH 061520Z 02006KT 320V070 9999 FEW027 18/11 Q1015 NOSIG</raw_text,
      <station_id,EGSH</station_id,
      <observation_time,2018-06-06T15:20:00Z</observation_time,
      <latitude,52.68</latitude,
      <longitude,1.28</longitude,
      <temp_c,18.0</temp_c,
      <dewpoint_c,11.0</dewpoint_c,
      <wind_dir_degrees,20</wind_dir_degrees,
      <wind_speed_kt,6</wind_speed_kt,
      <visibility_statute_mi,6.21</visibility_statute_mi,
      <altim_in_hg,29.970472</altim_in_hg,
      <quality_control_flags,
        <no_signal,TRUE</no_signal,
      </quality_control_flags,
      <sky_condition sky_cover="FEW" cloud_base_ft_agl="2700" /,
      <flight_category,VFR</flight_category,
      <metar_type,METAR</metar_type,
      <elevation_m,36.0</elevation_m,
    </METAR,
    <METAR,
      <raw_text,EGSH 061450Z 01007KT 340V050 9999 FEW027 18/11 Q1015 NOSIG</raw_text,
      <station_id,EGSH</station_id,
      <observation_time,2018-06-06T14:50:00Z</observation_time,
      <latitude,52.68</latitude,
      <longitude,1.28</longitude,
      <temp_c,18.0</temp_c,
      <dewpoint_c,11.0</dewpoint_c,
      <wind_dir_degrees,10</wind_dir_degrees,
      <wind_speed_kt,7</wind_speed_kt,
      <visibility_statute_mi,6.21</visibility_statute_mi,
      <altim_in_hg,29.970472</altim_in_hg,
      <quality_control_flags,
        <no_signal,TRUE</no_signal,
      </quality_control_flags,
      <sky_condition sky_cover="FEW" cloud_base_ft_agl="2700" /,
      <flight_category,VFR</flight_category,
      <metar_type,METAR</metar_type,
      <elevation_m,36.0</elevation_m,
    </METAR,
    <METAR,
      <raw_text,EGSH 061420Z 01007KT 310V070 9999 FEW027 18/11 Q1016 NOSIG</raw_text,
      <station_id,EGSH</station_id,
      <observation_time,2018-06-06T14:20:00Z</observation_time,
      <latitude,52.68</latitude,
      <longitude,1.28</longitude,
      <temp_c,18.0</temp_c,
      <dewpoint_c,11.0</dewpoint_c,
      <wind_dir_degrees,10</wind_dir_degrees,
      <wind_speed_kt,7</wind_speed_kt,
      <visibility_statute_mi,6.21</visibility_statute_mi,
      <altim_in_hg,30.0</altim_in_hg,
      <quality_control_flags,
        <no_signal,TRUE</no_signal,
      </quality_control_flags,
      <sky_condition sky_cover="FEW" cloud_base_ft_agl="2700" /,
      <flight_category,VFR</flight_category,
      <metar_type,METAR</metar_type,
      <elevation_m,36.0</elevation_m,
    </METAR,
  </data,
</response,
